1 41611U 16040N   21009.15021050  .00003655  00000-0  13030-3 0  9999
2 41611  97.3032  76.3026 0009686 161.7158 198.4433 15.29494771253181
1 41611U 16040N   21009.67359727  .00003492  00000-0  12461-3 0  9997
2 41611  97.3032  76.8167 0009745 159.9057 200.2569 15.29498160253262
1 41611U 16040N   21010.45867523  .00003440  00000-0  12277-3 0  9991
2 41611  97.3031  77.5878 0009819 157.3263 202.8413 15.29503155253381
1 41611U 16040N   21010.72036729  .00003502  00000-0  12493-3 0  9996
2 41611  97.3030  77.8448 0009831 156.5430 203.6261 15.29505072253422
1 41611U 16040N   21011.44001831  .00003716  00000-0  13236-3 0  9995
2 41611  97.3029  78.5517 0009881 154.3126 205.8607 15.29510639253533
1 41611U 16040N   21011.89797592  .00004741  00000-0  16812-3 0  9992
2 41611  97.3026  79.0014 0009909 152.8432 207.3329 15.29517030253600
1 41611U 16040N   21012.15966575  .00004581  00000-0  16250-3 0  9999
2 41611  97.3026  79.2584 0009925 151.9759 208.2018 15.29518952253647
1 41611U 16040N   21012.42135450  .00005726  00000-0  20244-3 0  9999
2 41611  97.3026  79.5154 0009946 151.1151 209.0642 15.29524224253689
1 41611U 16040N   21012.87931001  .00004782  00000-0  16950-3 0  9994
2 41611  97.3024  79.9651 0009986 149.5850 210.5972 15.29526053253757
1 41611U 16040N   21013.20641985  .00004525  00000-0  16051-3 0  9998
2 41611  97.3023  80.2864 0010018 148.5284 211.6558 15.29528810253806
1 41611U 16040N   21013.40268548  .00004480  00000-0  15892-3 0  9992
2 41611  97.3022  80.4792 0010039 147.8709 212.3145 15.29530572253835
1 41611U 16040N   21013.72979433  .00004310  00000-0  15298-3 0  9991
2 41611  97.3020  80.8004 0010064 146.8078 213.3796 15.29533441253885
1 41611U 16040N   21014.44943152  .00003691  00000-0  13138-3 0  9992
2 41611  97.3017  81.5070 0010107 144.6118 215.5795 15.29538841253995
1 41611U 16040N   21014.90738093  .00003702  00000-0  13174-3 0  9992
2 41611  97.3015  81.9567 0010124 143.2368 216.9569 15.29543024254061
1 41611U 16040N   21015.43075099  .00003351  00000-0  11949-3 0  9999
2 41611  97.3014  82.4706 0010166 141.6160 218.5806 15.29546232254144
1 41611U 16040N   21016.15038333  .00003450  00000-0  12291-3 0  9990
2 41611  97.3012  83.1772 0010204 139.2983 220.9022 15.29551118254250
1 41611U 16040N   21016.47748821  .00003395  00000-0  12099-3 0  9999
2 41611  97.3012  83.4984 0010225 138.2563 221.9459 15.29553124254304
1 41611U 16040N   21016.80459227  .00003476  00000-0  12381-3 0  9999
2 41611  97.3011  83.8196 0010248 137.2240 222.9800 15.29555746254356
1 41611U 16040N   21017.45879959  .00003518  00000-0  12523-3 0  9994
2 41611  97.3010  84.4620 0010293 135.1597 225.0477 15.29560077254454
1 41611U 16040N   21017.72048192  .00003533  00000-0  12574-3 0  9994
2 41611  97.3010  84.7190 0010316 134.3325 225.8763 15.29561867254493
1 41611U 16040N   21018.44010693  .00003629  00000-0  12909-3 0  9997
2 41611  97.3009  85.4256 0010365 132.0573 228.1551 15.29566693254602
1 41611U 16040N   21018.70178820  .00003623  00000-0  12885-3 0  9990
2 41611  97.3008  85.6826 0010383 131.2643 228.9493 15.29568445254649
1 41611U 16040N   21018.83262841  .00002843  00000-0  10169-3 0  9997
2 41611  97.3008  85.8110 0010395 130.8894 229.3249 15.29567090254664
1 41611U 16040N   21019.55224926  .00003612  00000-0  12844-3 0  9996
2 41611  97.3007  86.5177 0010438 128.6938 231.5238 15.29574448254776
1 41611U 16040N   21019.81392903  .00003682  00000-0  13090-3 0  9997
2 41611  97.3007  86.7747 0010454 127.8458 232.3730 15.29576437254818
1 41611U 16040N   21019.87934849  .00003768  00000-0  13387-3 0  9998
2 41611  97.3007  86.8390 0010459 127.6436 232.5755 15.29577409254822
1 41611U 16040N   21020.20644765  .00003652  00000-0  12984-3 0  9996
2 41611  97.3007  87.1602 0010479 126.6380 233.5826 15.29579561254877
1 41611U 16040N   21020.92606305  .00004129  00000-0  14641-3 0  9995
2 41611  97.3007  87.8670 0010516 124.4126 235.8110 15.29586301254988
1 41611U 16040N   21021.44941805  .00003788  00000-0  13452-3 0  9999
2 41611  97.3008  88.3809 0010544 122.8426 237.3831 15.29589848255061
1 41611U 16040N   21021.71109483  .00003808  00000-0  13520-3 0  9996
2 41611  97.3008  88.6379 0010551 122.0341 238.1926 15.29592305255103
1 41611U 16040N   21022.16902836  .00003681  00000-0  13076-3 0  9994
2 41611  97.3008  89.0877 0010562 120.6355 239.5929 15.29595960255177
1 41611U 16040N   21022.43070403  .00003839  00000-0  13626-3 0  9996
2 41611  97.3008  89.3447 0010575 119.8321 240.3972 15.29598601255218
1 41611U 16040N   21022.88863595  .00003735  00000-0  13262-3 0  9998
2 41611  97.3008  89.7944 0010604 118.4077 241.8234 15.29602155255284
1 41611U 16040N   21023.21572926  .00004026  00000-0  14275-3 0  9990
2 41611  97.3009  90.1156 0010613 117.4212 242.8109 15.29605731255337
1 41611U 16040N   21023.93533290  .00004164  00000-0  14751-3 0  9992
2 41611  97.3008  90.8224 0010654 115.2171 245.0175 15.29611640255440
1 41611U 16040N   21024.45867856  .00004668  00000-0  16501-3 0  9992
2 41611  97.3008  91.3364 0010666 113.6142 246.6219 15.29617525255527
1 41611U 16040N   21024.91660472  .00004505  00000-0  15934-3 0  9997
2 41611  97.3007  91.7860 0010664 112.2459 247.9913 15.29621267255595
1 41611U 16040N   21025.43994678  .00005232  00000-0  18457-3 0  9994
2 41611  97.3006  92.2999 0010668 110.6536 249.5850 15.29628244255674
1 41611U 16040N   21025.63619925  .00006752  00000-0  23734-3 0  9997
2 41611  97.3006  92.4926 0010669 110.0075 250.2315 15.29634077255709
1 41611U 16040N   21025.89786887  .00006819  00000-0  23965-3 0  9997
2 41611  97.3006  92.7497 0010673 109.2465 250.9931 15.29636772255742
1 41611U 16040N   21026.42120514  .00009351  00000-0  32748-3 0  9999
2 41611  97.3005  93.2636 0010690 107.5959 252.6451 15.29649193255826
1 41611U 16040N   21026.81370640  .00008654  00000-0  30325-3 0  9993
2 41611  97.3004  93.6492 0010710 106.4306 253.8112 15.29652669255881
1 41611U 16040N   21026.87912291  .00006795  00000-0  23874-3 0  9998
2 41611  97.3004  93.7134 0010705 106.2639 253.9780 15.29650958255898
1 41611U 16040N   21027.20620519  .00007497  00000-0  26304-3 0  9996
2 41611  97.3003  94.0346 0010709 105.2637 254.9788 15.29657576255945
1 41611U 16040N   21027.92578282  .00007042  00000-0  24716-3 0  9995
2 41611  97.3000  94.7412 0010718 103.1149 257.1289 15.29667885256056
1 41611U 16040N   21028.12203042  .00006864  00000-0  24097-3 0  9990
2 41611  97.2999  94.9339 0010713 102.5185 257.7255 15.29670678256086
1 41611U 16040N   21028.44910893  .00007160  00000-0  25122-3 0  9994
2 41611  97.2998  95.2551 0010716 101.5549 258.6896 15.29675793256131
1 41611U 16040N   21028.84160229  .00005014  00000-0  17672-3 0  9995
2 41611  97.2996  95.6404 0010724 100.4069 259.8381 15.29677746256192
1 41611U 16040N   21029.16867928  .00004548  00000-0  16054-3 0  9995
2 41611  97.2994  95.9616 0010725  99.4396 260.8058 15.29681196256242
1 41611U 16040N   21029.43034026  .00004527  00000-0  15979-3 0  9992
2 41611  97.2993  96.2185 0010731  98.6503 261.5954 15.29684086256282
1 41611U 16040N   21029.82283158  .00004642  00000-0  16376-3 0  9997
2 41611  97.2992  96.6039 0010729  97.4489 262.7971 15.29687573256343
1 41611U 16040N   21030.14990681  .00004029  00000-0  14246-3 0  9993
2 41611  97.2991  96.9250 0010743  96.4668 263.7796 15.29689645256397
1 41611U 16040N   21031.71986017  .00003516  00000-0  12460-3 0  9991
2 41611  97.2985  98.4664 0010754  91.7990 268.4482 15.29701521256633
1 41611U 16040N   21032.17776078  .00003903  00000-0  13803-3 0  9998
2 41611  97.2983  98.9161 0010726  90.3882 269.8587 15.29705968256700
1 41611U 16040N   21032.43941792  .00003846  00000-0  13605-3 0  9990
2 41611  97.2984  99.1730 0010718  89.5468 270.7001 15.29707773256749
1 41611U 16040N   21033.48604280  .00005097  00000-0  17939-3 0  9998
2 41611  97.2982 100.2008 0010697  86.3038 273.9426 15.29718749256902
1 41611U 16040N   21033.81311139  .00006338  00000-0  22235-3 0  9997
2 41611  97.2982 100.5220 0010697  85.2930 274.9532 15.29724469256950
1 41611U 16040N   21034.40183333  .00004496  00000-0  15849-3 0  9992
2 41611  97.2982 101.1001 0010694  83.5898 276.6560 15.29725674257045
1 41611U 16040N   21034.92513898  .00005395  00000-0  18961-3 0  9999
2 41611  97.2982 101.6140 0010688  82.0382 278.2071 15.29733263257126
1 41611U 16040N   21035.05596531  .00005259  00000-0  18490-3 0  9995
2 41611  97.2982 101.7424 0010685  81.6269 278.6183 15.29734277257144
1 41611U 16040N   21035.44844291  .00005967  00000-0  20941-3 0  9997
2 41611  97.2982 102.1279 0010669  80.4221 279.8224 15.29740319257204
1 41611U 16040N   21035.64468143  .00005589  00000-0  19631-3 0  9991
2 41611  97.2982 102.3206 0010652  79.8602 280.3840 15.29741817257231
1 41611U 16040N   21036.16798250  .00004275  00000-0  15075-3 0  9993
2 41611  97.2982 102.8344 0010634  78.2914 281.9519 15.29745355257318
1 41611U 16040N   21036.42963245  .00004553  00000-0  16038-3 0  9999
2 41611  97.2982 103.0914 0010630  77.4934 282.7496 15.29748477257358
1 41611U 16040N   21036.69128222  .00004530  00000-0  15957-3 0  9990
2 41611  97.2982 103.3483 0010620  76.7103 283.5321 15.29751046257397
1 41611U 16040N   21037.41081711  .00003699  00000-0  13076-3 0  9997
2 41611  97.2983 104.0548 0010608  74.5477 285.6935 15.29755362257506
1 41611U 16040N   21038.26117264  .00005695  00000-0  19982-3 0  9994
2 41611  97.2982 104.8898 0010567  71.9681 288.2710 15.29767067257632
1 41611U 16040N   21038.71905428  .00006885  00000-0  24094-3 0  9993
2 41611  97.2981 105.3395 0010538  70.5169 289.7209 15.29773895257706
1 41611U 16040N   21039.17693491  .00004474  00000-0  15754-3 0  9993
2 41611  97.2981 105.7892 0010509  69.2122 291.0244 15.29772507257775
1 41611U 16040N   21039.70022558  .00004356  00000-0  15343-3 0  9995
2 41611  97.2980 106.3030 0010486  67.6374 292.5977 15.29777031257855
1 41611U 16040N   21039.89645909  .00004071  00000-0  14356-3 0  9993
2 41611  97.2980 106.4958 0010484  67.0003 293.2343 15.29778160257888
